DUBAISAT-1              
1 35682U 09041B   26196.37452723  .00000372  00000+0  62663-4 0  9993
2 35682  98.0085 329.3291 0009938 348.0704  12.0269 14.75166779909258
OCEANSAT-2              
1 35931U 09051A   26196.57952840 -.00000088  00000+0 -34465-4 0  9993
2 35931  98.2320 180.5963 0017366 152.3631 207.8463 13.99655952883309
WORLDVIEW-2 (WV-2)      
1 35946U 09055A   26196.62441963  .00000040  00000+0  27637-4 0  9997
2 35946  98.4757 269.6869 0005333 128.8013 231.3651 14.37906996879731
SMOS                    
1 36036U 09059A   26196.54389170  .00000126  00000+0  54114-4 0  9999
2 36036  98.4428  23.4632 0001155  96.5206 263.6114 14.39736201877534
YAOGAN-7                
1 36110U 09069A   26196.25148093  .00000200  00000+0  34958-4 0  9995
2 36110  98.0033  81.9406 0023497 311.1420  48.7762 14.78035538893773
TANDEM-X                
1 36605U 10030A   26188.47915494  .00000386  00000+0  21566-4 0  9992
2 36605  97.4457 195.8973 0001887  94.3019 265.8431 15.19154052889726
CARTOSAT-2B             
1 36795U 10035A   26196.62613419  .00000310  00000+0  49365-4 0  9999
2 36795  97.9946 246.9922 0012739  99.7637 260.5013 14.78651978864059
YAOGAN-10               
1 36834U 10038A   26196.65798334  .00001494  00000+0  17964-3 0  9992
2 36834  97.8967 219.8353 0001686  82.1478  54.5345 14.85432589861431
COSMO-SKYMED 4          
1 37216U 10060A   26196.59564414  .00000238  00000+0  36524-4 0  9994
2 37216  97.8885  19.7842 0001475  87.2681 272.8701 14.82148471848777
RESOURCESAT-2           
1 37387U 11015A   26196.59406172 -.00000004  00000+0  18432-4 0  9990
2 37387  98.7632 263.8377 0011575 169.9485 190.1926 14.21599572790214
RASAT                   
1 37791U 11044D   26196.60560581  .00000409  00000+0  79308-4 0  9995
2 37791  98.0588 287.5692 0021934 101.5279   5.3550 14.68193751797354
SRMSAT                  
1 37841U 11058D   26196.43842265  .00000333  00000+0  37014-4 0  9993
2 37841  19.9710 248.4743 0011765 153.8769 331.6515 14.11581130761815
PLEIADES 1A             
1 38012U 11076F   26196.60976855  .00000342  00000+0  83311-4 0  9997
2 38012  98.1975 271.3294 0001688  79.4022  56.9921 14.58547722776131
ZIYUAN 1-02C (ZY 1-02C) 
1 38038U 11079A   26196.61402881  .00000468  00000+0  16800-3 0  9999
2 38038  98.4065 263.3269 0005600 213.3759 284.1787 14.38236803763290
ARIRANG-3 (KOMPSAT-3)   
1 38338U 12025B   26196.63644752  .00000180  00000+0  44966-4 0  9997
2 38338  98.1185 153.6084 0006198  37.7377 322.4259 14.62229209755500
EXACTVIEW-1 (ADS-1B)    
1 38709U 12039C   26196.32699931  .00000035  00000+0  34979-4 0  9991
2 38709  98.9805 314.3565 0011955  91.1989 269.0559 14.24992221726718
SPOT 6                  
1 38755U 12047A   26196.59917713  .00000353  00000+0  85867-4 0  9996
2 38755  98.2113 263.5736 0001112  85.6323 274.5004 14.58539817737198
PLEIADES 1B             
1 39019U 12068A   26196.61777422  .00000386  00000+0  92895-4 0  9992
2 39019  98.1946 271.2765 0001569  78.2448 281.8928 14.58535435724997
GOKTURK 2               
1 39030U 12073A   26196.62981056 -.00000131  00000+0 -12312-4 0  9998
2 39030  97.6804  32.6343 0000918  94.7675 265.3640 14.75567200728705
LANDSAT 8               
1 39084U 13008A   26196.59140895  .00000161  00000+0  45815-4 0  9995
2 39084  98.2290 266.3876 0001345  94.4481 265.6871 14.57112068702039
SARAL                   
1 39086U 13009A   26196.60129368  .00000027  00000+0  25763-4 0  9993
2 39086  98.5555  22.8093 0001721 165.6882 194.4352 14.32895881699670
GAOFEN-1                
1 39150U 13018A   26196.59322883  .00000499  00000+0  78750-4 0  9997
2 39150  97.9091 268.0822 0017084 169.8308 190.3251 14.76520147712433
VNREDSAT 1              
1 39160U 13021B   26196.57278514  .00000330  00000+0  70146-4 0  9996
2 39160  97.9068 248.8975 0001596  79.2650 280.8734 14.64884284704443
ARIRANG-5 (KOMPSAT-5)   
1 39227U 13042A   26196.63159676  .00000318  00000+0  27087-4 0  9999
2 39227  97.6203  22.9325 0005369  57.0176 303.1566 15.04495450708134
SKYSAT-A                
1 39418U 13066C   26196.09964842  .00001524  00000+0  89294-4 0  9994
2 39418  97.3805 244.6073 0020508 213.8194 146.1731 15.13115170692700
DUBAISAT-2              
1 39419U 13066D   26196.56023479  .00001888  00000+0  11878-3 0  9994
2 39419  97.4575 185.9664 0009334 302.0178  58.0144 15.10377479690678
GPM-CORE                
1 39574U 14009C   26196.56391740  .00003425  00000+0  77491-4 0  9996
2 39574  64.9690 213.0507 0010949 262.2376  97.7522 15.45046250702196
SENTINEL-1A             
1 39634U 14016A   26196.61890347 -.00000033  00000+0  26578-5 0  9998
2 39634  98.1768 203.7365 0001421  85.0862 275.0500 14.59196142654162
KAZEOSAT 1              
1 39731U 14024A   26196.60847826  .00000283  00000+0  99179-4 0  9990
2 39731  98.3203 268.3469 0001235  82.0970 278.0360 14.42038148642659
