OBJECT_NAME,OBJECT_ID,EPOCH,MEAN_MOTION,ECCENTRICITY,INCLINATION,RA_OF_ASC_NODE,ARG_OF_PERICENTER,MEAN_ANOMALY,EPHEMERIS_TYPE,CLASSIFICATION_TYPE,NORAD_CAT_ID,ELEMENT_SET_NO,REV_AT_EPOCH,BSTAR,MEAN_MOTION_DOT,MEAN_MOTION_DDOT
DUBAISAT-1,2009-041B,2026-07-15T08:59:19.152672,14.75166779,.00099383,98.0085,329.3291,348.0704,12.0269,0,U,35682,999,90925,.6266315E-4,.372E-5,0
OCEANSAT-2,2009-051A,2026-07-15T13:54:31.253760,13.99655952,.00173665,98.2320,180.5963,152.3631,207.8463,0,U,35931,999,88330,-.34465308E-4,-.88E-6,0
WORLDVIEW-2 (WV-2),2009-055A,2026-07-15T14:59:09.856032,14.37906996,.00053331,98.4757,269.6869,128.8013,231.3651,0,U,35946,999,87973,.27636579E-4,.4E-6,0
SMOS,2009-059A,2026-07-15T13:03:12.242880,14.39736201,.00011554,98.4428,23.4632,96.5206,263.6114,0,U,36036,999,87753,.5411379E-4,.126E-5,0
YAOGAN-7,2009-069A,2026-07-15T06:02:07.952352,14.78035538,.00234971,98.0033,81.9406,311.1420,48.7762,0,U,36110,999,89377,.34957606E-4,.2E-5,0
TANDEM-X,2010-030A,2026-07-07T11:29:58.986816,15.19154052,.0001887,97.4457,195.8973,94.3019,265.8431,0,U,36605,999,88972,.21566E-4,.386E-5,0
CARTOSAT-2B,2010-035A,2026-07-15T15:01:37.994016,14.78651978,.0012739,97.9946,246.9922,99.7637,260.5013,0,U,36795,999,86405,.49365E-4,.31E-5,0
YAOGAN-10,2010-038A,2026-07-15T15:47:29.760576,14.85432589,.00016867,97.8967,219.8353,82.1478,54.5345,0,U,36834,999,86143,.17964498E-3,.1494E-4,0
COSMO-SKYMED 4,2010-060A,2026-07-15T14:17:43.653696,14.82148471,.00014751,97.8885,19.7842,87.2681,272.8701,0,U,37216,999,84877,.36523995E-4,.238E-5,0
RESOURCESAT-2,2011-015A,2026-07-15T14:15:26.932608,14.21599572,.00115751,98.7632,263.8377,169.9485,190.1926,0,U,37387,999,79021,.18432032E-4,-.4E-7,0
RASAT,2011-044D,2026-07-15T14:32:04.341984,14.68193751,.00219349,98.0588,287.5692,101.5279,5.3550,0,U,37791,999,79735,.79307994E-4,.409E-5,0
SRMSAT,2011-058D,2026-07-15T10:31:19.716960,14.11581130,.00117659,19.9710,248.4743,153.8769,331.6515,0,U,37841,999,76181,.37014491E-4,.333E-5,0
PLEIADES 1A,2011-076F,2026-07-15T14:38:04.002720,14.58547722,.0001688,98.1975,271.3294,79.4022,56.9921,0,U,38012,999,77613,.83311489E-4,.342E-5,0
ZIYUAN 1-02C (ZY 1-02C),2011-079A,2026-07-15T14:44:12.089184,14.38236803,.00056001,98.4065,263.3269,213.3759,284.1787,0,U,38038,999,76329,.16799841E-3,.468E-5,0
ARIRANG-3 (KOMPSAT-3),2012-025B,2026-07-15T15:16:29.065728,14.62229209,.00061987,98.1185,153.6084,37.7377,322.4259,0,U,38338,999,75550,.44965986E-4,.18E-5,0
EXACTVIEW-1 (ADS-1B),2012-039C,2026-07-15T07:50:52.740384,14.24992221,.00119553,98.9805,314.3565,91.1989,269.0559,0,U,38709,999,72671,.34979341E-4,.35E-6,0
SPOT 6,2012-047A,2026-07-15T14:22:48.904032,14.58539817,.00011127,98.2113,263.5736,85.6323,274.5004,0,U,38755,999,73719,.85867033E-4,.353E-5,0
PLEIADES 1B,2012-068A,2026-07-15T14:49:35.692608,14.58535435,.00015696,98.1946,271.2765,78.2448,281.8928,0,U,39019,999,72499,.9289526E-4,.386E-5,0
GOKTURK 2,2012-073A,2026-07-15T15:06:55.632384,14.75567200,.00009184,97.6804,32.6343,94.7675,265.3640,0,U,39030,999,72870,-.12311958E-4,-.131E-5,0
LANDSAT 8,2013-008A,2026-07-15T14:11:37.733280,14.57112068,.00013452,98.2290,266.3876,94.4481,265.6871,0,U,39084,999,70203,.45814598E-4,.161E-5,0
SARAL,2013-009A,2026-07-15T14:25:51.773952,14.32895881,.00017216,98.5555,22.8093,165.6882,194.4352,0,U,39086,999,69967,.25762574E-4,.27E-6,0
GAOFEN-1,2013-018A,2026-07-15T14:14:14.970912,14.76520147,.00170843,97.9091,268.0822,169.8308,190.3251,0,U,39150,999,71243,.7875006E-4,.499E-5,0
VNREDSAT 1,2013-021B,2026-07-15T13:44:48.636096,14.64884284,.00015966,97.9068,248.8975,79.2650,280.8734,0,U,39160,999,70444,.70145949E-4,.33E-5,0
ARIRANG-5 (KOMPSAT-5),2013-042A,2026-07-15T15:09:29.960064,15.04495450,.00053695,97.6203,22.9325,57.0176,303.1566,0,U,39227,999,70813,.27087141E-4,.318E-5,0
SKYSAT-A,2013-066C,2026-07-15T02:23:29.623488,15.13115170,.00205081,97.3805,244.6073,213.8194,146.1731,0,U,39418,999,69270,.89294429E-4,.1524E-4,0
DUBAISAT-2,2013-066D,2026-07-15T13:26:44.285856,15.10377479,.00093343,97.4575,185.9664,302.0178,58.0144,0,U,39419,999,69067,.11877736E-3,.1888E-4,0
GPM-CORE,2014-009C,2026-07-15T13:32:02.463360,15.45046250,.00109495,64.9690,213.0507,262.2376,97.7522,0,U,39574,999,70219,.77490888E-4,.3425E-4,0
SENTINEL-1A,2014-016A,2026-07-15T14:51:13.259808,14.59196142,.00014212,98.1768,203.7365,85.0862,275.0500,0,U,39634,999,65416,.2657765E-5,-.33E-6,0
KAZEOSAT 1,2014-024A,2026-07-15T14:36:12.521664,14.42038148,.00012356,98.3203,268.3469,82.0970,278.0360,0,U,39731,999,64265,.99178922E-4,.283E-5,0
